{
  "norad_id": 55051,
  "name": "ION SCV-008",
  "history": [
    {
      "epoch": "2026-03-28T21:19:50.603232Z",
      "apogee_km": 492.68454648872375,
      "perigee_km": 473.79051666860596,
      "latitude_deg": -3.2684866993774354e-05,
      "longitude_deg": 36.68379992557682,
      "height_km": 481.92569579132737,
      "semi_major_axis_km": 6861.374531578665,
      "eccentricity": 0.00137684,
      "inclination_deg": 97.5669,
      "raan_deg": 182.9474,
      "arg_perigee_deg": 297.8591,
      "mean_anomaly_deg": 62.1252,
      "mean_motion_rev_day": 15.27517072
    },
    {
      "epoch": "2026-03-29T05:11:29.813856Z",
      "apogee_km": 492.65961281392356,
      "perigee_km": 473.7634589461113,
      "latitude_deg": 3.4066415272650376e-05,
      "longitude_deg": -81.22002178266422,
      "height_km": 482.07990040707165,
      "semi_major_axis_km": 6861.348535880017,
      "eccentricity": 0.001377,
      "inclination_deg": 97.5671,
      "raan_deg": 183.2798,
      "arg_perigee_deg": 296.6267,
      "mean_anomaly_deg": 63.3561,
      "mean_motion_rev_day": 15.27525753
    }
  ]
}